[
    {
        "Altitude(m)": 617719.7490497644,
        "Argument of Periapsis(deg)": 0.0,
        "Eccentricity": 0.0,
        "Inclination(deg)": 60.0,
        "Latitude(deg)": -41.10258083603263,
        "Longitude(deg)": 175.09454228930508,
        "Mean Anomaly(deg)": 229.09090000000003,
        "RAAN(deg)": 65.0,
        "Satellite Name": "Test1 300",
        "Satellite Number": 300,
        "Semi-Major Axis(m)": 6980739.136638005,
        "Time(s)": 0
    },
    {
        "Altitude(m)": 617911.2853034205,
        "Argument of Periapsis(deg)": 0.00010418945913296404,
        "Eccentricity": 0.0,
        "Inclination(deg)": 60.0,
        "Latitude(deg)": -41.56577388397373,
        "Longitude(deg)": 175.59894666101206,
        "Mean Anomaly(deg)": 229.71100614546188,
        "RAAN(deg)": 64.99957995086025,
        "Satellite Name": "Test1 300",
        "Satellite Number": 300,
        "Semi-Major Axis(m)": 6980739.136638005,
        "Time(s)": 10
    },
    {
        "Altitude(m)": 618101.6963457566,
        "Argument of Periapsis(deg)": 0.0002083789182659281,
        "Eccentricity": 0.0,
        "Inclination(deg)": 60.0,
        "Latitude(deg)": -42.02628844846526,
        "Longitude(deg)": 176.11115838828457,
        "Mean Anomaly(deg)": 230.3311122909237,
        "RAAN(deg)": 64.99915990172052,
        "Satellite Name": "Test1 300",
        "Satellite Number": 300,
        "Semi-Major Axis(m)": 6980739.136638005,
        "Time(s)": 20
    },
    {
        "Altitude(m)": 618290.9091493001,
        "Argument of Periapsis(deg)": 0.00031256837739889213,
        "Eccentricity": 0.0,
        "Inclination(deg)": 60.0,
        "Latitude(deg)": -42.48404428327341,
        "Longitude(deg)": 176.63137215654416,
        "Mean Anomaly(deg)": 230.95121843638552,
        "RAAN(deg)": 64.99873985258077,
        "Satellite Name": "Test1 300",
        "Satellite Number": 300,
        "Semi-Major Axis(m)": 6980739.136638005,
        "Time(s)": 30
    },
    {
        "Altitude(m)": 618478.8510637886,
        "Argument of Periapsis(deg)": 0.0004167578365318562,
        "Eccentricity": 0.0,
        "Inclination(deg)": 60.0,
        "Latitude(deg)": -42.93895861711913,
        "Longitude(deg)": 177.15978644493993,
        "Mean Anomaly(deg)": 231.57132458184736,
        "RAAN(deg)": 64.99831980344103,
        "Satellite Name": "Test1 300",
        "Satellite Number": 300,
        "Semi-Major Axis(m)": 6980739.136638005,
        "Time(s)": 40
    },
    {
        "Altitude(m)": 618665.4498478225,
        "Argument of Periapsis(deg)": 0.0005209472956648203,
        "Eccentricity": 0.0,
        "Inclination(deg)": 60.0,
        "Latitude(deg)": -43.390946075563505,
        "Longitude(deg)": 177.69660242843824,
        "Mean Anomaly(deg)": 232.19143072730915,
        "RAAN(deg)": 64.9978997543013,
        "Satellite Name": "Test1 300",
        "Satellite Number": 300,
        "Semi-Major Axis(m)": 6980739.136638005,
        "Time(s)": 50
    },
    {
        "Altitude(m)": 618850.6337003097,
        "Argument of Periapsis(deg)": 0.0006251367547977843,
        "Eccentricity": 0.0,
        "Inclination(deg)": 60.0,
        "Latitude(deg)": -43.83991860225392,
        "Longitude(deg)": 178.24202437303293,
        "Mean Anomaly(deg)": 232.811536872771,
        "RAAN(deg)": 64.99747970516155,
        "Satellite Name": "Test1 300",
        "Satellite Number": 300,
        "Semi-Major Axis(m)": 6980739.136638005,
        "Time(s)": 60
    },
    {
        "Altitude(m)": 619034.3312917125,
        "Argument of Periapsis(deg)": 0.0007293262139307483,
        "Eccentricity": 0.0,
        "Inclination(deg)": 60.0,
        "Latitude(deg)": -44.28578537976228,
        "Longitude(deg)": 178.79626000934024,
        "Mean Anomaly(deg)": 233.43164301823282,
        "RAAN(deg)": 64.99705965602182,
        "Satellite Name": "Test1 300",
        "Satellite Number": 300,
        "Semi-Major Axis(m)": 6980739.136638005,
        "Time(s)": 70
    },
    {
        "Altitude(m)": 619216.4717950396,
        "Argument of Periapsis(deg)": 0.0008335156730637124,
        "Eccentricity": 0.0,
        "Inclination(deg)": 60.0,
        "Latitude(deg)": -44.728452750277306,
        "Longitude(deg)": 179.35951936971648,
        "Mean Anomaly(deg)": 234.05174916369467,
        "RAAN(deg)": 64.99663960688207,
        "Satellite Name": "Test1 300",
        "Satellite Number": 300,
        "Semi-Major Axis(m)": 6980739.136638005,
        "Time(s)": 80
    },
    {
        "Altitude(m)": 619396.9849166279,
        "Argument of Periapsis(deg)": 0.0009377051321966765,
        "Eccentricity": 0.0,
        "Inclination(deg)": 60.0,
        "Latitude(deg)": -45.167824136457966,
        "Longitude(deg)": 179.93201511253827,
        "Mean Anomaly(deg)": 234.67185530915646,
        "RAAN(deg)": 64.99621955774234,
        "Satellite Name": "Test1 300",
        "Satellite Number": 300,
        "Semi-Major Axis(m)": 6980739.136638005,
        "Time(s)": 90
    },
    {
        "Altitude(m)": 619575.8009266326,
        "Argument of Periapsis(deg)": 0.0010418945913296407,
        "Eccentricity": 0.0,
        "Inclination(deg)": 60.0,
        "Latitude(deg)": -45.603799962791314,
        "Longitude(deg)": -179.48603718144835,
        "Mean Anomaly(deg)": 235.2919614546183,
        "RAAN(deg)": 64.99579950860257,
        "Satellite Name": "Test1 300",
        "Satellite Number": 300,
        "Semi-Major Axis(m)": 6980739.136638005,
        "Time(s)": 100
    },
    {
        "Altitude(m)": 619752.850689273,
        "Argument of Periapsis(deg)": 0.0011460840504626045,
        "Eccentricity": 0.0,
        "Inclination(deg)": 60.0,
        "Latitude(deg)": -46.03627757783151,
        "Longitude(deg)": -178.89442025593195,
        "Mean Anomaly(deg)": 235.91206760008015,
        "RAAN(deg)": 64.99537945946282,
        "Satellite Name": "Test1 300",
        "Satellite Number": 300,
        "Semi-Major Axis(m)": 6980739.136638005,
        "Time(s)": 110
    },
    {
        "Altitude(m)": 619928.0656927795,
        "Argument of Periapsis(deg)": 0.0012502735095955685,
        "Eccentricity": 0.0,
        "Inclination(deg)": 60.0,
        "Latitude(deg)": -46.46515117776166,
        "Longitude(deg)": -178.29291494569895,
        "Mean Anomaly(deg)": 236.53217374554197,
        "RAAN(deg)": 64.99495941032309,
        "Satellite Name": "Test1 300",
        "Satellite Number": 300,
        "Semi-Major Axis(m)": 6980739.136638005,
        "Time(s)": 120
    },
    {
        "Altitude(m)": 620101.3780790612,
        "Argument of Periapsis(deg)": 0.0013544629687285324,
        "Eccentricity": 0.0,
        "Inclination(deg)": 60.0,
        "Latitude(deg)": -46.890311731754906,
        "Longitude(deg)": -177.68129997859418,
        "Mean Anomaly(deg)": 237.15227989100376,
        "RAAN(deg)": 64.99453936118334,
        "Satellite Name": "Test1 300",
        "Satellite Number": 300,
        "Semi-Major Axis(m)": 6980739.136638005,
        "Time(s)": 130
    },
    {
        "Altitude(m)": 620272.7206730547,
        "Argument of Periapsis(deg)": 0.0014586524278614966,
        "Eccentricity": 0.0,
        "Inclination(deg)": 60.0,
        "Latitude(deg)": -47.311646909667594,
        "Longitude(deg)": -177.0593533283158,
        "Mean Anomaly(deg)": 237.77238603646566,
        "RAAN(deg)": 64.99411931204361,
        "Satellite Name": "Test1 300",
        "Satellite Number": 300,
        "Semi-Major Axis(m)": 6980739.136638005,
        "Time(s)": 140
    },
    {
        "Altitude(m)": 620442.0270117519,
        "Argument of Periapsis(deg)": 0.0015628418869944607,
        "Eccentricity": 0.0,
        "Inclination(deg)": 60.0,
        "Latitude(deg)": -47.729041012661924,
        "Longitude(deg)": -176.42685209504754,
        "Mean Anomaly(deg)": 238.3924921819275,
        "RAAN(deg)": 64.99369926290386,
        "Satellite Name": "Test1 300",
        "Satellite Number": 300,
        "Semi-Major Axis(m)": 6980739.136638005,
        "Time(s)": 150
    },
    {
        "Altitude(m)": 620609.231372916,
        "Argument of Periapsis(deg)": 0.0016670313461274247,
        "Eccentricity": 0.0,
        "Inclination(deg)": 60.0,
        "Latitude(deg)": -48.14237490740836,
        "Longitude(deg)": -175.7835724296241,
        "Mean Anomaly(deg)": 239.0125983273893,
        "RAAN(deg)": 64.99327921376413,
        "Satellite Name": "Test1 300",
        "Satellite Number": 300,
        "Semi-Major Axis(m)": 6980739.136638005,
        "Time(s)": 160
    },
    {
        "Altitude(m)": 620774.268803419,
        "Argument of Periapsis(deg)": 0.0017712208052603888,
        "Eccentricity": 0.0,
        "Inclination(deg)": 60.0,
        "Latitude(deg)": -48.5515259645817,
        "Longitude(deg)": -175.12929101697725,
        "Mean Anomaly(deg)": 239.63270447285117,
        "RAAN(deg)": 64.99285916462438,
        "Satellite Name": "Test1 300",
        "Satellite Number": 300,
        "Semi-Major Axis(m)": 6980739.136638005,
        "Time(s)": 170
    },
    {
        "Altitude(m)": 620937.0751472671,
        "Argument of Periapsis(deg)": 0.001875410264393353,
        "Eccentricity": 0.0,
        "Inclination(deg)": 60.0,
        "Latitude(deg)": -48.956368002439845,
        "Longitude(deg)": -174.46378509602135,
        "Mean Anomaly(deg)": 240.25281061831296,
        "RAAN(deg)": 64.99243911548463,
        "Satellite Name": "Test1 300",
        "Satellite Number": 300,
        "Semi-Major Axis(m)": 6980739.136638005,
        "Time(s)": 180
    },
    {
        "Altitude(m)": 621097.5870732246,
        "Argument of Periapsis(deg)": 0.0019795997235263173,
        "Eccentricity": 0.0,
        "Inclination(deg)": 60.0,
        "Latitude(deg)": -49.356771236337586,
        "Longitude(deg)": -173.78683253175438,
        "Mean Anomaly(deg)": 240.8729167637748,
        "RAAN(deg)": 64.9920190663449,
        "Satellite Name": "Test1 300",
        "Satellite Number": 300,
        "Semi-Major Axis(m)": 6980739.136638005,
        "Time(s)": 190
    }
]